      2.10          N: GNSS NAV DATA                        RINEX VERSION / TYPE
fic2rin                                 11/16/2022 00:17:52 PGM / RUN BY / DATE
                                                            END OF HEADER
2  22 11 15  1 59 44.0 -.637804158032D-03  .170530256582D-11  .000000000000D+00
     .230000000000D+02  .105937500000D+02  .438803992233D-08 -.174757102164D+01
     .864267349243D-06  .199985076906D-01  .328756868839D-05  .515369836044D+04
     .179984000000D+06  .186264514923D-08 -.603727582054D+00  .469386577606D-06
     .966908035875D+00  .321093750000D+03 -.136319135318D+01 -.811748098281D-08
    -.735744932444D-10  .100000000000D+01  .223600000000D+04  .000000000000D+00
     .240000000000D+01  .000000000000D+00 -.176951289177D-07  .230000000000D+02
     .172800000000D+06  .400000000000D+01
7  22 11 15  1 59 44.0  .287295319140D-03 -.466116034659D-11  .000000000000D+00
     .340000000000D+02  .132187500000D+02  .482627246219D-08 -.143586889953D+01
     .793486833572D-06  .164642720483D-01  .687502324581D-05  .515361617279D+04
     .179984000000D+06  .370666384697D-06  .262107365458D+01  .577419996262D-07
     .950680423976D+00  .235531250000D+03 -.223719479125D+01 -.797676083554D-08
     .128576784311D-09  .100000000000D+01  .223600000000D+04  .000000000000D+00
     .240000000000D+01  .630000000000D+02 -.111758708954D-07  .340000000000D+02
     .172800000000D+06  .400000000000D+01
32 22 11 15 11 59 44.0 -.296977814287D-03 -.126192389871D-10  .000000000000D+00
     .000000000000D+00 -.477500000000D+02  .462233539597D-08  .112552500762D+01
    -.242143869400D-05  .620302360039D-02  .876188278198D-05  .515367250633D+04
     .215984000000D+06 -.447034835815D-07  .156128385413D+01  .126659870148D-06
     .958451400925D+00  .211312500000D+03 -.229797891017D+01 -.807140763510D-08
     .112147528538D-09  .100000000000D+01  .223600000000D+04  .000000000000D+00
     .240000000000D+01  .000000000000D+00  .465661287308D-09  .000000000000D+00
     .209820000000D+06  .400000000000D+01
14 22 11 15 12 44 32.0 -.826697796583D-04  .511590769747D-11  .000000000000D+00
     .700000000000D+02  .362187500000D+02  .466662295501D-08 -.283331704111D+01
     .190734863281D-05  .240097718779D-02  .753812491894D-05  .515365745926D+04
     .218672000000D+06 -.521540641785D-07 -.258436100855D+01  .931322574615D-08
     .950970712273D+00  .229187500000D+03 -.304453263698D+01 -.802747723379D-08
    -.247867467532D-09  .100000000000D+01  .223600000000D+04  .000000000000D+00
     .240000000000D+01  .000000000000D+00 -.791624188423D-08  .838000000000D+03
     .211500000000D+06  .400000000000D+01
13 22 11 15 11 59 44.0  .424989964813D-03  .682121026330D-11  .000000000000D+00
     .200000000000D+01 -.315312500000D+02  .443589905872D-08 -.922741210732D-01
    -.158324837685D-05  .667743047234D-02  .889040529728D-05  .515367323112D+04
     .215984000000D+06 -.353902578354D-07  .170619375892D+01  .838190317154D-07
     .968787591560D+00  .210062500000D+03  .951491056142D+00 -.795604568695D-08
     .166078346401D-09  .100000000000D+01  .223600000000D+04  .000000000000D+00
     .240000000000D+01  .000000000000D+00 -.116415321827D-07  .200000000000D+01
     .213630000000D+06  .400000000000D+01
1  22 11 15 11 59 44.0  .251485034823D-03 -.568434188608D-11  .000000000000D+00
     .300000000000D+01  .296875000000D+01  .385658921385D-08 -.184679749119D+01
     .132247805595D-06  .120419387240D-01  .430643558502D-05  .515365848923D+04
     .215984000000D+06  .184401869774D-06 -.509197228760D+00 -.651925802231D-07
     .989135282552D+00  .307875000000D+03  .940776143811D+00 -.774353683511D-08
     .200722646618D-09  .100000000000D+01  .223600000000D+04  .000000000000D+00
     .240000000000D+01  .000000000000D+00  .465661287308D-08  .300000000000D+01
     .213660000000D+06  .400000000000D+01
18 22 11 15 13 44 32.0 -.229133293033D-04 -.139834810398D-10  .000000000000D+00
     .138000000000D+03  .110312500000D+02  .425374861428D-08 -.746047339181D+00
     .519677996635D-06  .295495602768D-02  .375136733055D-05  .515371514130D+04
     .222272000000D+06  .502914190292D-07 -.505445436368D+00 -.577419996262D-07
     .972990891673D+00  .311625000000D+03 -.313964676774D+01 -.813712465819D-08
     .142505935944D-09  .100000000000D+01  .223600000000D+04  .000000000000D+00
     .240000000000D+01  .000000000000D+00 -.838190317154D-08  .138000000000D+03
     .215100000000D+06  .400000000000D+01
1  22 11 15 13 59 44.0  .251444522291D-03 -.568434188608D-11  .000000000000D+00
     .500000000000D+01  .881250000000D+01  .397516558160D-08 -.796689677574D+00
     .655651092529D-06  .120417965809D-01  .471994280815D-05  .515365668488D+04
     .223184000000D+06  .540167093277D-07 -.509253245356D+00  .255182385445D-06
     .989135028004D+00  .304062500000D+03  .940854380670D+00 -.805140680198D-08
     .967897459671D-10  .100000000000D+01  .223600000000D+04  .000000000000D+00
     .240000000000D+01  .000000000000D+00  .465661287308D-08  .500000000000D+01
     .216000000000D+06  .400000000000D+01
13 22 11 15 13 59 44.0  .425039324909D-03  .682121026330D-11  .000000000000D+00
     .300000000000D+01 -.288750000000D+02  .446268588878D-08  .957941351611D+00
    -.141561031342D-05  .667743105441D-02  .892207026482D-05  .515367304993D+04
     .223184000000D+06 -.763684511185D-07  .170613670218D+01  .521540641785D-07
     .968788668268D+00  .211906250000D+03  .951455938793D+00 -.794318800852D-08
     .132505519387D-09  .100000000000D+01  .223600000000D+04  .000000000000D+00
     .240000000000D+01  .000000000000D+00 -.116415321827D-07  .300000000000D+01
     .216000000000D+06  .400000000000D+01
32 22 11 15 13 59 44.0 -.297068618238D-03 -.126192389871D-10  .000000000000D+00
     .100000000000D+01 -.519687500000D+02  .451733102211D-08  .217565894310D+01
    -.268779695034D-05  .620359089226D-02  .909157097340D-05  .515367296982D+04
     .223184000000D+06 -.117346644402D-06  .156122557440D+01 -.115483999252D-06
     .958453415363D+00  .203437500000D+03 -.229793128341D+01 -.787068498848D-08
     .231438211759D-09  .100000000000D+01  .223600000000D+04  .000000000000D+00
     .240000000000D+01  .000000000000D+00  .465661287308D-09  .100000000000D+01
     .216000000000D+06  .400000000000D+01
30 22 11 15 13 59 44.0 -.536672770977D-03  .341060513165D-12  .000000000000D+00
     .700000000000D+01  .164375000000D+02  .519914513669D-08 -.153433192041D+01
     .733882188797D-06  .594450347126D-02  .742077827454D-05  .515367992783D+04
     .223184000000D+06  .558793544769D-07  .262976021198D+01 -.651925802231D-07
     .935819777359D+00  .221593750000D+03 -.266340560302D+01 -.821748514838D-08
     .482162941165D-10  .100000000000D+01  .223600000000D+04  .000000000000D+00
     .240000000000D+01  .000000000000D+00  .372529029846D-08  .700000000000D+01
     .216000000000D+06  .400000000000D+01
3  22 11 15 14  0  0.0 -.372850801796D-03 -.193267624127D-11  .000000000000D+00
     .700000000000D+01 -.658125000000D+02  .425089135240D-08 -.191225054827D+01
    -.340491533279D-05  .444633618463D-02  .566057860851D-05  .515377646065D+04
     .223200000000D+06  .111758708954D-06  .522574811453D+00 -.391155481339D-07
     .976326399022D+00  .279250000000D+03  .105009065798D+01 -.789640034534D-08
     .135719938995D-09  .100000000000D+01  .223600000000D+04  .000000000000D+00
     .240000000000D+01  .000000000000D+00  .186264514923D-08  .700000000000D+01
     .216000000000D+06  .400000000000D+01
2  22 11 15 14  0  0.0 -.637729186565D-03  .170530256582D-11  .000000000000D+00
     .810000000000D+02  .255937500000D+02  .431589406003D-08 -.172760814833D+01
     .181421637535D-05  .199998316821D-01  .385195016861D-05  .515369899559D+04
     .223200000000D+06  .186264514923D-08 -.604082829766D+00  .478699803352D-06
     .966911340607D+00  .309750000000D+03 -.136301319024D+01 -.809390857235D-08
     .131076888450D-09  .100000000000D+01  .223600000000D+04  .000000000000D+00
     .240000000000D+01  .000000000000D+00 -.176951289177D-07  .810000000000D+02
     .216000000000D+06  .400000000000D+01
16 22 11 15 14  0  0.0 -.526887830347D-03  .000000000000D+00  .000000000000D+00
     .500000000000D+01  .379062500000D+02  .434303804782D-08  .234057480853D+01
     .175833702087D-05  .129965859232D-01  .795535743237D-05  .515374049568D+04
     .223200000000D+06 -.115483999252D-06 -.253036315741D+01 -.242143869400D-06
     .967374866200D+00  .231406250000D+03  .738660714698D+00 -.778282418587D-08
    -.305727020472D-09  .100000000000D+01  .223600000000D+04  .000000000000D+00
     .240000000000D+01  .000000000000D+00 -.102445483208D-07  .500000000000D+01
     .216000000000D+06  .400000000000D+01
